SatCatId,ObjectName,LaunchYear,OrbitalPeriod,LaunchMass,StatusCode,Inclination,Status,UcsData,OrbitClassEstimated,LaunchSiteCountry,Owner,UseType,Purpose,LaunchVehicleClass,TLE1,TLE2,MeanMotion,Eccentricity,OrbitClass
52419,MYRADAR1,2022,94.9,-1.0,+,97.43,Active,0,LEO,New Zealand,USA,Unknown,Unknown,Unknown,1 52419U 22047AB  23028.21759309  .00014514  00000+0  72851-3 0  9997,2 52419  97.4332 113.2849 0009259 116.9359 243.2822 15.17369417 42371,15.17369417,0.0009259,LEO
52420,TRSI-2,2022,94.86,-1.0,+,97.43,Active,0,LEO,New Zealand,USA,Unknown,Unknown,Electron,1 52420U 22047AC  23027.77187907  .00018857  00000+0  92498-3 0  9991,2 52420  97.4328 112.9582 0008821 118.7020 241.5101 15.18120309 42318,15.18120309,0.0008821,LEO
52421,OBJECT AD,2022,94.18,-1.0,+,97.43,Active,0,LEO,New Zealand,To Be Determined,Unknown,Unknown,Unknown,1 52421U 22047AD  23027.76182585  .00068636  00000+0  24142-2 0  9998,2 52421  97.4301 114.4551 0004806 116.7362 243.4370 15.29073678 42417,15.29073678,0.0004806,LEO
52422,BRO-6,2022,95.1,-1.0,+,97.44,Active,0,LEO,New Zealand,France,Unknown,Unknown,Electron,1 52422U 22047AE  23028.20895071  .00007337  00000+0  40405-3 0  9992,2 52422  97.4383 112.8547 0009122 127.0468 260.6374 15.14278920 42330,15.1427892,0.0009122,LEO
52423,OBJECT AF,2022,94.97,-1.0,+,97.43,Active,0,LEO,New Zealand,To Be Determined,Unknown,Unknown,Unknown,1 52423U 22047AF  23027.81794149  .00013719  00000+0  70967-3 0  9990,2 52423  97.4332 112.6187 0007507 130.6833 229.5054 15.16336886 42296,15.16336886,0.0007507,LEO
52424,OBJECT AG,2022,94.94,-1.0,+,97.44,Active,0,LEO,New Zealand,To Be Determined,Unknown,Unknown,Unknown,1 52424U 22047AG  23027.14350613  .00015288  00000+0  78161-3 0  9998,2 52424  97.4386 112.1735 0008483 136.1212 224.0696 15.16718450 42198,15.1671845,0.0008483,LEO
52425,OBJECT AH,2022,94.93,-1.0,+,97.43,Active,0,LEO,New Zealand,To Be Determined,Unknown,Unknown,Unknown,1 52425U 22047AH  23027.72415830  .00018248  00000+0  92489-3 0  9994,2 52425  97.4340 112.6414 0008191 137.8743 222.3122 15.16987195 42280,15.16987195,0.0008191,LEO
52426,OBJECT AJ,2022,95.0,-1.0,+,97.44,Active,0,LEO,New Zealand,To Be Determined,Unknown,Unknown,Unknown,1 52426U 22047AJ  23027.78431753  .00014830  00000+0  77937-3 0  9997,2 52426  97.4364 112.7431 0009174 140.5272 219.6631 15.15747445 42293,15.15747445,0.0009174,LEO
52427,OBJECT AK,2022,94.67,-1.0,+,97.44,Active,0,LEO,New Zealand,To Be Determined,Unknown,Unknown,Unknown,1 52427U 22047AK  23027.75672392  .00033039  00000+0  14818-2 0  9991,2 52427  97.4353 113.2143 0006804 140.4282 219.7452 15.21115554 42328,15.21115554,0.0006804,LEO
52443,JILIN-01 KUANFU 01C,2022,95.31,-1.0,+,97.66,Active,0,LEO,PRC,China,Unknown,Unknown,Long March,1 52443U 22048A   23028.14590164  .00005045  00000+0  30636-3 0  9993,2 52443  97.6556  98.0933 0014212  73.8258 343.4330 15.10876712 40454,15.10876712,0.0014212,LEO
52444,JILIN-01 GAOFEN 3D 27,2022,95.25,-1.0,+,97.66,Active,0,LEO,PRC,China,Unknown,Unknown,Unknown,1 52444U 22048B   23028.16147006  .00009454  00000+0  55570-3 0  9991,2 52444  97.6559  98.2111 0014677  71.8954 340.3939 15.11810667 40475,15.11810667,0.0014677,LEO
52445,JILIN-01 GAOFEN 3D 28,2022,95.25,-1.0,+,97.65,Active,0,LEO,PRC,China,Unknown,Unknown,Unknown,1 52445U 22048C   23028.14583737  .00009445  00000+0  55537-3 0  9998,2 52445  97.6529  98.1573 0014249  71.9011  12.9348 15.11802580 40475,15.1180258,0.0014249,LEO
52446,JILIN-01 GAOFEN 3D 29,2022,95.25,-1.0,+,97.66,Active,0,LEO,PRC,China,Unknown,Unknown,Unknown,1 52446U 22048D   23028.13209631  .00009923  00000+0  58377-3 0  9992,2 52446  97.6560  98.2634 0013997  74.5409  12.6592 15.11773526 40474,15.11773526,0.0013997,LEO
52447,JILIN-01 GAOFEN 3D 30,2022,95.25,-1.0,+,97.65,Active,0,LEO,PRC,China,Unknown,Unknown,Unknown,1 52447U 22048E   23028.15493390  .00009314  00000+0  54717-3 0  9990,2 52447  97.6538  98.3151 0015290  67.7892 351.6305 15.11826543 40480,15.11826543,0.001529,LEO
52448,JILIN-01 GAOFEN 3D 31,2022,95.25,-1.0,+,97.65,Active,0,LEO,PRC,China,Unknown,Unknown,Unknown,1 52448U 22048F   23028.14744308  .00009337  00000+0  54921-3 0  9990,2 52448  97.6539  98.3334 0012748  80.6552 336.9360 15.11809162 40482,15.11809162,0.0012748,LEO
52449,JILIN-01 GAOFEN 3D 32,2022,95.2,-1.0,+,97.66,Active,0,LEO,PRC,China,Unknown,Unknown,Unknown,1 52449U 22048G   23028.15929667  .00009886  00000+0  56730-3 0  9994,2 52449  97.6560  98.5182 0014751  82.2334 329.9892 15.12664983 40496,15.12664983,0.0014751,LEO
52450,JILIN-01 GAOFEN 3D 33,2022,95.18,-1.0,+,97.65,Active,0,LEO,PRC,China,Unknown,Unknown,Unknown,1 52450U 22048H   23028.13877236  .00010209  00000+0  57970-3 0  9996,2 52450  97.6549  98.5291 0016748  94.4933 349.6951 15.13004661 40491,15.13004661,0.0016748,LEO
52451,STARLINK-3870,2022,95.44,-1.0,+,53.22,Active,0,LEO,USA,USA,Unknown,Unknown,Falcon,1 52451U 22049A   23027.56861284  .00000958  00000+0  78277-4 0  9994,2 52451  53.2172 133.8550 0001371 114.7906 245.3229 15.08848979 40442,15.08848979,0.0001371,LEO
52452,STARLINK-3909,2022,95.44,-1.0,+,53.22,Active,0,LEO,USA,USA,Unknown,Unknown,Falcon,1 52452U 22049B   23028.25405746  .00000906  00000+0  74997-4 0  9997,2 52452  53.2173 130.7898 0001286  82.6788 277.4350 15.08837788 40707,15.08837788,0.0001286,LEO
52453,STARLINK-3872,2022,95.44,-1.0,+,53.22,Active,0,LEO,USA,USA,Unknown,Unknown,Falcon,1 52453U 22049C   23027.56125487  .00001569  00000+0  11667-3 0  9992,2 52453  53.2160 133.9013 0001783  94.2378 265.8818 15.08844307 40440,15.08844307,0.0001783,LEO
52454,STARLINK-3888,2022,95.44,-1.0,+,53.21,Active,0,LEO,USA,USA,Unknown,Unknown,Falcon,1 52454U 22049D   23027.56493379  .00003074  00000+0  21108-3 0  9995,2 52454  53.2143 133.8802 0001438 105.7210 254.3941 15.08846883 40448,15.08846883,0.0001438,LEO
52455,STARLINK-3890,2022,95.44,-1.0,+,53.22,Active,0,LEO,USA,USA,Unknown,Unknown,Falcon,1 52455U 22049E   23028.28717692 -.00000194  00000+0  58970-5 0  9993,2 52455  53.2155 130.6380 0001535  89.4861 270.6307 15.08833946 40719,15.08833946,0.0001535,LEO
52456,STARLINK-3896,2022,95.44,-1.0,+,53.22,Active,0,LEO,USA,USA,Unknown,Unknown,Falcon,1 52456U 22049F   23027.55485517  .00001016  00000+0  81907-4 0  9999,2 52456  53.2160 133.9283 0001772  74.6121 285.5067 15.08841848 40440,15.08841848,0.0001772,LEO
52457,STARLINK-3899,2022,95.44,-1.0,+,53.21,Active,0,LEO,USA,USA,Unknown,Unknown,Falcon,1 52457U 22049G   23028.27981762  .00001679  00000+0  12354-3 0  9997,2 52457  53.2132 130.6757 0001325  84.9204 275.1939 15.08838956 40719,15.08838956,0.0001325,LEO
52458,STARLINK-3898,2022,95.44,-1.0,+,53.21,Active,0,LEO,USA,USA,Unknown,Unknown,Falcon,1 52458U 22049H   23028.01117526  .00012381  00000+0  79391-3 0  9995,2 52458  53.2148 131.8719 0000767  77.9166 282.1912 15.08872454 40671,15.08872454,7.67e-05,LEO
52459,STARLINK-3856,2022,95.44,-1.0,+,53.22,Active,0,LEO,USA,USA,Unknown,Unknown,Falcon,1 52459U 22049J   23027.53273447  .00002531  00000+0  17703-3 0  9992,2 52459  53.2166 124.0150 0001097 103.0289 257.0825 15.08843896 40570,15.08843896,0.0001097,LEO
52460,STARLINK-3865,2022,95.44,-1.0,+,53.22,Active,0,LEO,USA,USA,Unknown,Unknown,Falcon,1 52460U 22049K   23027.53001401  .00002264  00000+0  16027-3 0  9994,2 52460  53.2166 124.0263 0001350 100.5753 259.5391 15.08843145 40579,15.08843145,0.000135,LEO
52461,STARLINK-3900,2022,95.44,-1.0,+,53.22,Active,0,LEO,USA,USA,Unknown,Unknown,Falcon,1 52461U 22049L   23028.19238080 -.00001120  00000+0 -52300-4 0  9990,2 52461  53.2169 111.0592 0001065  83.8438 276.2675 15.08843623 40976,15.08843623,0.0001065,LEO
52462,STARLINK-3903,2022,95.44,-1.0,+,53.22,Active,0,LEO,USA,USA,Unknown,Unknown,Falcon,1 52462U 22049M   23027.52537608  .00008662  00000+0  56182-3 0  9992,2 52462  53.2165 124.0510 0001641  80.8593 279.2585 15.08829733 40571,15.08829733,0.0001641,LEO
52463,STARLINK-3885,2022,95.44,-1.0,+,53.22,Active,0,LEO,USA,USA,Unknown,Unknown,Falcon,1 52463U 22049N   23027.39381609  .00002814  00000+0  19478-3 0  9996,2 52463  53.2159 114.6363 0001628 114.3387 245.7775 15.08844213 40697,15.08844213,0.0001628,LEO
52464,STARLINK-3904,2022,95.44,-1.0,+,53.22,Active,0,LEO,USA,USA,Unknown,Unknown,Falcon,1 52464U 22049P   23027.52905733  .00001682  00000+0  12377-3 0  9995,2 52464  53.2166 124.0363 0001466  96.0750 264.0410 15.08842193 40573,15.08842193,0.0001466,LEO
52465,STARLINK-3863,2022,95.44,-1.0,+,53.22,Active,0,LEO,USA,USA,Unknown,Unknown,Falcon,1 52465U 22049Q   23027.52261747  .00000237  00000+0  32987-4 0  9991,2 52465  53.2192 114.0681 0001639 106.0978 254.0195 15.08838501 40714,15.08838501,0.0001639,LEO
52466,STARLINK-3840,2022,95.44,-1.0,+,53.22,Active,0,LEO,USA,USA,Unknown,Unknown,Falcon,1 52466U 22049R   23028.24666687 -.00000557  00000+0 -16888-4 0  9993,2 52466  53.2190 120.8162 0002174  87.3632 272.7609 15.08835604 40847,15.08835604,0.0002174,LEO
52467,STARLINK-3873,2022,95.44,-1.0,+,53.22,Active,0,LEO,USA,USA,Unknown,Unknown,Falcon,1 52467U 22049S   23028.25033747 -.00004160  00000+0 -24349-3 0  9994,2 52467  53.2155 120.8006 0001222  80.8408 279.2722 15.08827409 40840,15.08827409,0.0001222,LEO
52468,STARLINK-3864,2022,95.44,-1.0,+,53.22,Active,0,LEO,USA,USA,Unknown,Unknown,Falcon,1 52468U 22049T   23028.23562730 -.00000165  00000+0  77131-5 0  9991,2 52468  53.2169 120.8712 0001372  98.1752 261.9396 15.08843319 40843,15.08843319,0.0001372,LEO
52469,STARLINK-3828,2022,95.44,-1.0,+,53.22,Active,0,LEO,USA,USA,Unknown,Unknown,Falcon,1 52469U 22049U   23027.58057965  .00001779  00000+0  12983-3 0  9991,2 52469  53.2177 123.8075 0001324  96.5273 263.5870 15.08840825 40580,15.08840825,0.0001324,LEO
52470,STARLINK-3859,2022,95.44,-1.0,+,53.22,Active,0,LEO,USA,USA,Unknown,Unknown,Falcon,1 52470U 22049V   23027.96329664  .00000641  00000+0  58319-4 0  9994,2 52470  53.2165 122.0927 0001167  90.2693 269.8433 15.08843970 40801,15.0884397,0.0001167,LEO
